norad_id,name,regime,epoch,line1,line2,inclination,eccentricity,mean_motion,raan,arg_pericenter,mean_anomaly
43231,O3B FM15,MEO,23105.52620962,1 43231U 18024A   23105.52620962 -.00000023  00000-0  00000+0 0  4395,2 43231   0.0563   6.7777 0002962  15.5648 337.6689  5.00116353 93234,0.0563,0.0002962,5.00116353,6.7777,15.5648,337.6689
43231,O3B FM15,MEO,23106.32577006,1 43231U 18024A   23106.32577006 -.00000023  00000-0  00000-0 0    10,2 43231   0.0563   6.7892 0002959  16.1728 337.0495  5.00116402 93104,0.0563,0.0002959,5.00116402,6.7892,16.1728,337.0495
43231,O3B FM15,MEO,23106.52566032,1 43231U 18024A   23106.52566032 -.00000023  00000-0  00000-0 0    19,2 43231   0.0563   6.7497 0002960  16.3793 336.8826  5.00116405 93110,0.0563,0.000296,5.00116405,6.7497,16.3793,336.8826
43231,O3B FM15,MEO,23107.32522128,1 43231U 18024A   23107.32522128 -.00000024  00000-0  00000-0 0    17,2 43231   0.0563   6.7275 0002959  17.2034 336.0813  5.00116424 93153,0.0563,0.0002959,5.00116424,6.7275,17.2034,336.0813
43231,O3B FM15,MEO,23108.32467297,1 43231U 18024A   23108.32467297 -.00000024  00000-0  00000-0 0    13,2 43231   0.0562   6.7142 0002956  18.2974 335.0013  5.00116419 93207,0.0562,0.0002956,5.00116419,6.7142,18.2974,335.0013
43231,O3B FM15,MEO,23109.52401515,1 43231U 18024A   23109.52401515 -.00000024  00000-0  00000-0 0    17,2 43231   0.0562   6.6805 0002953  19.0741 334.2590  5.00116394 93269,0.0562,0.0002953,5.00116394,6.6805,19.0741,334.259
43231,O3B FM15,MEO,23109.52401526,1 43231U 18024A   23109.52401526 -.00000024  00000-0  00000-0 0    19,2 43231   0.0563   6.6469 0002954  19.2190 334.1479  5.00116388 93265,0.0563,0.0002954,5.00116388,6.6469,19.219,334.1479
43231,O3B FM15,MEO,23110.32357627,1 43231U 18024A   23110.32357627 -.00000025  00000-0  00000-0 0    12,2 43231   0.0562   6.6035 0002954  19.8768 333.5339  5.00116410 93309,0.0562,0.0002954,5.0011641,6.6035,19.8768,333.5339
43231,O3B FM15,MEO,23110.72335650,1 43231U 18024A   23110.72335650 -.00000025  00000-0  00000-0 0    18,2 43231   0.0562   6.6299 0002952  20.2761 333.1085  5.00116446 93323,0.0562,0.0002952,5.00116446,6.6299,20.2761,333.1085
43231,O3B FM15,MEO,23111.32302727,1 43231U 18024A   23111.32302727 -.00000025  00000-0  00000-0 0    14,2 43231   0.0562   6.6080 0002951  20.8446 332.5624  5.00116461 93358,0.0562,0.0002951,5.00116461,6.608,20.8446,332.5624
43231,O3B FM15,MEO,23112.12258842,1 43231U 18024A   23112.12258842 -.00000026  00000-0  00000-0 0    12,2 43231   0.0562   6.5680 0002950  21.6993 331.7482  5.00116471 93396,0.0562,0.000295,5.00116471,6.568,21.6993,331.7482
43231,O3B FM15,MEO,23113.32193032,1 43231U 18024A   23113.32193032 -.00000027  00000-0  00000-0 0    15,2 43231   0.0562   6.5436 0002945  22.9392 330.5334  5.00116465 93459,0.0562,0.0002945,5.00116465,6.5436,22.9392,330.5334
43231,O3B FM15,MEO,23113.52182058,1 43231U 18024A   23113.52182058 -.00000028  00000-0  00000-0 0    14,2 43231   0.0562   6.5009 0002945  23.1648 330.3505  5.00116467 93463,0.0562,0.0002945,5.00116467,6.5009,23.1648,330.3505
43231,O3B FM15,MEO,23114.32138139,1 43231U 18024A   23114.32138139 -.00000028  00000-0  00000-0 0    14,2 43231   0.0562   6.5050 0002944  23.8917 329.6199  5.00116495 93500,0.0562,0.0002944,5.00116495,6.505,23.8917,329.6199
43231,O3B FM15,MEO,23115.32083266,1 43231U 18024A   23115.32083266 -.00000028  00000-0  00000-0 0    15,2 43231   0.0562   6.4804 0002944  24.7859 328.7507  5.00116503 93559,0.0562,0.0002944,5.00116503,6.4804,24.7859,328.7507
43231,O3B FM15,MEO,23117.11984507,1 43231U 18024A   23117.11984507 -.00000028  00000-0  00000-0 0    12,2 43231   0.0562   6.4141 0002945  26.5906 327.0133  5.00116513 93645,0.0562,0.0002945,5.00116513,6.4141,26.5906,327.0133
43231,O3B FM15,MEO,23118.31918695,1 43231U 18024A   23118.31918695 -.00000026  00000-0  00000-0 0    18,2 43231   0.0562   6.3720 0002944  27.7852 325.8617  5.00116499 93702,0.0562,0.0002944,5.00116499,6.372,27.7852,325.8617
43231,O3B FM15,MEO,23119.11874809,1 43231U 18024A   23119.11874809 -.00000024  00000-0  00000+0 0  4421,2 43231   0.0561   6.3204 0002945  28.4957 325.2034  5.00116498 93912,0.0561,0.0002945,5.00116498,6.3204,28.4957,325.2034
43231,O3B FM15,MEO,23119.31863842,1 43231U 18024A   23119.31863842 -.00000024  00000-0  00000-0 0    10,2 43231   0.0561   6.3168 0002945  28.6587 325.0441  5.00116495 93751,0.0561,0.0002945,5.00116495,6.3168,28.6587,325.0441
43231,O3B FM15,MEO,23120.31809015,1 43231U 18024A   23120.31809015 -.00000021  00000-0  00000-0 0    11,2 43231   0.0561   6.2571 0002945  29.7741 323.9894  5.00116477 93807,0.0561,0.0002945,5.00116477,6.2571,29.7741,323.9894
43231,O3B FM15,MEO,23121.31754170,1 43231U 18024A   23121.31754170 -.00000019  00000-0  00000-0 0    10,2 43231   0.0561   6.1461 0002945  30.8421 323.0335  5.00116476 93857,0.0561,0.0002945,5.00116476,6.1461,30.8421,323.0335
43231,O3B FM15,MEO,23121.71732238,1 43231U 18024A   23121.71732238 -.00000018  00000-0  00000-0 0    14,2 43231   0.0561   6.0931 0002945  31.2883 322.6407  5.00116470 93876,0.0561,0.0002945,5.0011647,6.0931,31.2883,322.6407
43231,O3B FM15,MEO,23122.11710313,1 43231U 18024A   23122.11710313 -.00000017  00000-0  00000-0 0    18,2 43231   0.0560   6.1220 0002946  31.6945 322.2061  5.00116459 93892,0.056,0.0002946,5.00116459,6.122,31.6945,322.2061
43231,O3B FM15,MEO,23122.51688353,1 43231U 18024A   23122.51688353 -.00000016  00000-0  00000-0 0    19,2 43231   0.0560   6.0864 0002945  32.1566 321.7801  5.00116475 93916,0.056,0.0002945,5.00116475,6.0864,32.1566,321.7801
43231,O3B FM15,MEO,23123.31644475,1 43231U 18024A   23123.31644475 -.00000014  00000-0  00000-0 0    13,2 43231   0.0560   6.0466 0002947  33.1137 320.8636  5.00116475 93951,0.056,0.0002947,5.00116475,6.0466,33.1137,320.8636
43231,O3B FM15,MEO,23123.71622537,1 43231U 18024A   23123.71622537 -.00000013  00000-0  00000-0 0    11,2 43231   0.0560   6.0164 0002945  33.5006 320.5073  5.00116470 93972,0.056,0.0002945,5.0011647,6.0164,33.5006,320.5073
43231,O3B FM15,MEO,23124.31589631,1 43231U 18024A   23124.31589631 -.00000013  00000-0  00000-0 0    15,2 43231   0.0559   6.0015 0002946  34.1801 319.8434  5.00116463 94005,0.0559,0.0002946,5.00116463,6.0015,34.1801,319.8434
43231,O3B FM15,MEO,23124.51578655,1 43231U 18024A   23124.51578655 -.00000012  00000-0  00000-0 0    10,2 43231   0.0559   5.9328 0002946  34.3767 319.7156  5.00116466 94017,0.0559,0.0002946,5.00116466,5.9328,34.3767,319.7156
43231,O3B FM15,MEO,23125.51523827,1 43231U 18024A   23125.51523827 -.00000012  00000-0  00000-0 0    12,2 43231   0.0559   5.8828 0002946  35.4559 318.6871  5.00116432 94062,0.0559,0.0002946,5.00116432,5.8828,35.4559,318.6871
43231,O3B FM15,MEO,23126.31479894,1 43231U 18024A   23126.31479894 -.00000011  00000-0  00000-0 0    14,2 43231   0.0559   5.8688 0002946  36.3047 317.8527  5.00116454 94106,0.0559,0.0002946,5.00116454,5.8688,36.3047,317.8527
43231,O3B FM15,MEO,23127.11436039,1 43231U 18024A   23127.11436039 -.00000012  00000-0  00000-0 0    18,2 43231   0.0559   5.8279 0002947  37.1262 317.0724  5.00116408 94145,0.0559,0.0002947,5.00116408,5.8279,37.1262,317.0724
43231,O3B FM15,MEO,23127.91392086,1 43231U 18024A   23127.91392086 -.00000012  00000-0  00000-0 0    19,2 43231   0.0558   5.7829 0002946  37.9524 316.2912  5.00116431 94182,0.0558,0.0002946,5.00116431,5.7829,37.9524,316.2912
43231,O3B FM15,MEO,23130.51249386,1 43231U 18024A   23130.51249386 -.00000017  00000-0  00000-0 0    18,2 43231   0.0557   5.5945 0002945  40.5747 313.8566  5.00116364 94312,0.0557,0.0002945,5.00116364,5.5945,40.5747,313.8566
43231,O3B FM15,MEO,23131.71183490,1 43231U 18024A   23131.71183490 -.00000019  00000-0  00000-0 0    16,2 43231   0.0556   5.5538 0002946  41.6605 312.8111  5.00116368 94370,0.0556,0.0002946,5.00116368,5.5538,41.6605,312.8111
43231,O3B FM15,MEO,23131.91172512,1 43231U 18024A   23131.91172512 -.00000019  00000-0  00000-0 0    11,2 43231   0.0556   5.5444 0002946  41.8604 312.6206  5.00116366 94389,0.0556,0.0002946,5.00116366,5.5444,41.8604,312.6206
43231,O3B FM15,MEO,23132.71128548,1 43231U 18024A   23132.71128548 -.00000020  00000-0  00000-0 0    12,2 43231   0.0556   5.5173 0002945  42.6071 311.9009  5.00116404 94425,0.0556,0.0002945,5.00116404,5.5173,42.6071,311.9009
43231,O3B FM15,MEO,23133.31095620,1 43231U 18024A   23133.31095620 -.00000020  00000-0  00000-0 0    13,2 43231   0.0556   5.4769 0002945  43.2229 311.3255  5.00116401 94454,0.0556,0.0002945,5.00116401,5.4769,43.2229,311.3255
43231,O3B FM15,MEO,23133.51084650,1 43231U 18024A   23133.51084650 -.00000021  00000-0  00000-0 0    17,2 43231   0.0555   5.4681 0002945  43.4258 311.1315  5.00116396 94469,0.0555,0.0002945,5.00116396,5.4681,43.4258,311.1315
43231,O3B FM15,MEO,23134.51029772,1 43231U 18024A   23134.51029772 -.00000021  00000-0  00000-0 0    12,2 43231   0.0555   5.4289 0002944  44.3494 310.2473  5.00116401 94512,0.0555,0.0002944,5.00116401,5.4289,44.3494,310.2473
43231,O3B FM15,MEO,23135.30985889,1 43231U 18024A   23135.30985889 -.00000021  00000-0  00000-0 0    10,2 43231   0.0554   5.3963 0002943  45.5823 309.0475  5.00116407 94555,0.0554,0.0002943,5.00116407,5.3963,45.5823,309.0475
43231,O3B FM15,MEO,23135.50974916,1 43231U 18024A   23135.50974916 -.00000021  00000-0  00000-0 0    11,2 43231   0.0554   5.3526 0002944  45.8003 308.8733  5.00116409 94561,0.0554,0.0002944,5.00116409,5.3526,45.8003,308.8733
43231,O3B FM15,MEO,23136.50920038,1 43231U 18024A   23136.50920038 -.00000022  00000-0  00000-0 0    19,2 43231   0.0554   5.2861 0002943  46.7013 308.0393  5.00116428 94613,0.0554,0.0002943,5.00116428,5.2861,46.7013,308.0393
43231,O3B FM15,MEO,23137.30876132,1 43231U 18024A   23137.30876132 -.00000022  00000-0  00000-0 0    13,2 43231   0.0553   5.1804 0002939  47.3919 307.4548  5.00116440 94647,0.0553,0.0002939,5.0011644,5.1804,47.3919,307.4548
